[{"OBJECT_NAME":"SENTINEL-1C","OBJECT_ID":"2024-235A","EPOCH":"2026-03-09T23:20:28.555872","MEAN_MOTION":14.59198602,"ECCENTRICITY":0.00013367,"INCLINATION":98.1825,"RA_OF_ASC_NODE":77.6943,"ARG_OF_PERICENTER":90.3687,"MEAN_ANOMALY":269.7665,"EPHEMERIS_TYPE":0,"CLASSIFICATION_TYPE":"U","NORAD_CAT_ID":62261,"ELEMENT_SET_NO":999,"REV_AT_EPOCH":6694,"BSTAR":0.00020454831,"MEAN_MOTION_DOT":9.19e-6,"MEAN_MOTION_DDOT":0},{"OBJECT_NAME":"NOAA 17 DEB","OBJECT_ID":"2002-032Y","EPOCH":"2026-03-09T10:04:12.813600","MEAN_MOTION":14.57553402,"ECCENTRICITY":0.00118452,"INCLINATION":98.7818,"RA_OF_ASC_NODE":65.9059,"ARG_OF_PERICENTER":111.583,"MEAN_ANOMALY":248.663,"EPHEMERIS_TYPE":0,"CLASSIFICATION_TYPE":"U","NORAD_CAT_ID":48183,"ELEMENT_SET_NO":999,"REV_AT_EPOCH":25931,"BSTAR":0.0024562114,"MEAN_MOTION_DOT":0.00011152,"MEAN_MOTION_DDOT":0}]
